[
  {
    "OBJECT_NAME": "OOV-CUBE (TUBSAT-30)",
    "OBJECT_ID": "2024-128F",
    "EPOCH": "2025-05-24T11:11:32.884512",
    "MEAN_MOTION": 15.0015123,
    "ECCENTRICITY": 0.0050473,
    "INCLINATION": 61.9939,
    "RA_OF_ASC_NODE": 138.3285,
    "ARG_OF_PERICENTER": 50.605,
    "MEAN_ANOMALY": 309.9493,
    "EPHEMERIS_TYPE": 0,
    "CLASSIFICATION_TYPE": "U",
    "NORAD_CAT_ID": 60240,
    "ELEMENT_SET_NO": 999,
    "REV_AT_EPOCH": 4774,
    "BSTAR": 0.00019496,
    "MEAN_MOTION_DOT": 2.299e-05,
    "MEAN_MOTION_DDOT": 0
  },
  {
    "OBJECT_NAME": "COLIBRI-S (RS67S)",
    "OBJECT_ID": "2024-199M",
    "EPOCH": "2025-05-24T20:48:55.653984",
    "MEAN_MOTION": 15.32189369,
    "ECCENTRICITY": 0.0010757,
    "INCLINATION": 97.3597,
    "RA_OF_ASC_NODE": 13.6251,
    "ARG_OF_PERICENTER": 233.777,
    "MEAN_ANOMALY": 126.2478,
    "EPHEMERIS_TYPE": 0,
    "CLASSIFICATION_TYPE": "U",
    "NORAD_CAT_ID": 61746,
    "ELEMENT_SET_NO": 999,
    "REV_AT_EPOCH": 7768,
    "BSTAR": 0.00029505,
    "MEAN_MOTION_DOT": 9.109e-05,
    "MEAN_MOTION_DDOT": 0
  },
  {
    "OBJECT_NAME": "HORS 3 (RS81S)",
    "OBJECT_ID": "2024-199U",
    "EPOCH": "2025-05-24T20:56:17.080224",
    "MEAN_MOTION": 15.33422025,
    "ECCENTRICITY": 0.0008917,
    "INCLINATION": 97.3565,
    "RA_OF_ASC_NODE": 13.6942,
    "ARG_OF_PERICENTER": 240.2012,
    "MEAN_ANOMALY": 119.8345,
    "EPHEMERIS_TYPE": 0,
    "CLASSIFICATION_TYPE": "U",
    "NORAD_CAT_ID": 61753,
    "ELEMENT_SET_NO": 999,
    "REV_AT_EPOCH": 7769,
    "BSTAR": 0.00037301,
    "MEAN_MOTION_DOT": 0.0001199,
    "MEAN_MOTION_DDOT": 0
  },
  {
    "OBJECT_NAME": "HORS 4 (RS82S)",
    "OBJECT_ID": "2024-199V",
    "EPOCH": "2025-05-24T19:37:25.335840",
    "MEAN_MOTION": 15.34148897,
    "ECCENTRICITY": 0.0009077,
    "INCLINATION": 97.3562,
    "RA_OF_ASC_NODE": 13.7596,
    "ARG_OF_PERICENTER": 240.475,
    "MEAN_ANOMALY": 119.5588,
    "EPHEMERIS_TYPE": 0,
    "CLASSIFICATION_TYPE": "U",
    "NORAD_CAT_ID": 61754,
    "ELEMENT_SET_NO": 999,
    "REV_AT_EPOCH": 7769,
    "BSTAR": 0.00038641,
    "MEAN_MOTION_DOT": 0.00012714,
    "MEAN_MOTION_DDOT": 0
  },
  {
    "OBJECT_NAME": "HORIZON (RS59S)",
    "OBJECT_ID": "2024-199Y",
    "EPOCH": "2025-05-24T20:06:12.932352",
    "MEAN_MOTION": 15.3713607,
    "ECCENTRICITY": 0.0009525,
    "INCLINATION": 97.3585,
    "RA_OF_ASC_NODE": 14.2559,
    "ARG_OF_PERICENTER": 226.2308,
    "MEAN_ANOMALY": 133.8149,
    "EPHEMERIS_TYPE": 0,
    "CLASSIFICATION_TYPE": "U",
    "NORAD_CAT_ID": 61757,
    "ELEMENT_SET_NO": 999,
    "REV_AT_EPOCH": 7772,
    "BSTAR": 0.00054113,
    "MEAN_MOTION_DOT": 0.00019645,
    "MEAN_MOTION_DDOT": 0
  },
  {
    "OBJECT_NAME": "SIT-2086",
    "OBJECT_ID": "2024-199AF",
    "EPOCH": "2025-05-24T20:18:17.764416",
    "MEAN_MOTION": 15.35465528,
    "ECCENTRICITY": 0.0007451,
    "INCLINATION": 97.3567,
    "RA_OF_ASC_NODE": 14.0343,
    "ARG_OF_PERICENTER": 235.6068,
    "MEAN_ANOMALY": 124.4471,
    "EPHEMERIS_TYPE": 0,
    "CLASSIFICATION_TYPE": "U",
    "NORAD_CAT_ID": 61764,
    "ELEMENT_SET_NO": 999,
    "REV_AT_EPOCH": 7455,
    "BSTAR": 0.00051509,
    "MEAN_MOTION_DOT": 0.00017704,
    "MEAN_MOTION_DDOT": 0
  },
  {
    "OBJECT_NAME": "MORDOVIA-IOT (RS50S)",
    "OBJECT_ID": "2024-199AG",
    "EPOCH": "2025-05-24T20:45:05.431680",
    "MEAN_MOTION": 15.40746324,
    "ECCENTRICITY": 0.0008957,
    "INCLINATION": 97.3565,
    "RA_OF_ASC_NODE": 14.81,
    "ARG_OF_PERICENTER": 218.9591,
    "MEAN_ANOMALY": 141.1011,
    "EPHEMERIS_TYPE": 0,
    "CLASSIFICATION_TYPE": "U",
    "NORAD_CAT_ID": 61765,
    "ELEMENT_SET_NO": 999,
    "REV_AT_EPOCH": 7461,
    "BSTAR": 0.00061509,
    "MEAN_MOTION_DOT": 0.0002515,
    "MEAN_MOTION_DDOT": 0
  },
  {
    "OBJECT_NAME": "RUZAEVKA 390 (RS44S)",
    "OBJECT_ID": "2024-199AH",
    "EPOCH": "2025-05-24T20:45:52.236288",
    "MEAN_MOTION": 15.39516267,
    "ECCENTRICITY": 0.0008991,
    "INCLINATION": 97.3566,
    "RA_OF_ASC_NODE": 14.6538,
    "ARG_OF_PERICENTER": 219.6028,
    "MEAN_ANOMALY": 140.4561,
    "EPHEMERIS_TYPE": 0,
    "CLASSIFICATION_TYPE": "U",
    "NORAD_CAT_ID": 61766,
    "ELEMENT_SET_NO": 999,
    "REV_AT_EPOCH": 7460,
    "BSTAR": 0.00059765,
    "MEAN_MOTION_DOT": 0.0002346,
    "MEAN_MOTION_DDOT": 0
  },
  {
    "OBJECT_NAME": "HYPERVIEW 1G (RS66S)",
    "OBJECT_ID": "2024-199AP",
    "EPOCH": "2025-05-24T21:39:01.067616",
    "MEAN_MOTION": 15.34843849,
    "ECCENTRICITY": 0.001204,
    "INCLINATION": 97.3562,
    "RA_OF_ASC_NODE": 13.7992,
    "ARG_OF_PERICENTER": 244.3994,
    "MEAN_ANOMALY": 115.6005,
    "EPHEMERIS_TYPE": 0,
    "CLASSIFICATION_TYPE": "U",
    "NORAD_CAT_ID": 61772,
    "ELEMENT_SET_NO": 999,
    "REV_AT_EPOCH": 7455,
    "BSTAR": 0.00049109,
    "MEAN_MOTION_DOT": 0.00016566,
    "MEAN_MOTION_DDOT": 0
  },
  {
    "OBJECT_NAME": "ALTAIR (RS65S)",
    "OBJECT_ID": "2024-199AW",
    "EPOCH": "2025-05-24T19:56:30.255936",
    "MEAN_MOTION": 15.28686372,
    "ECCENTRICITY": 0.0013857,
    "INCLINATION": 97.3586,
    "RA_OF_ASC_NODE": 12.8713,
    "ARG_OF_PERICENTER": 250.9787,
    "MEAN_ANOMALY": 108.9952,
    "EPHEMERIS_TYPE": 0,
    "CLASSIFICATION_TYPE": "U",
    "NORAD_CAT_ID": 61779,
    "ELEMENT_SET_NO": 999,
    "REV_AT_EPOCH": 7763,
    "BSTAR": 0.00023637,
    "MEAN_MOTION_DOT": 6.536e-05,
    "MEAN_MOTION_DDOT": 0
  },
  {
    "OBJECT_NAME": "ASRTU-1 (AO-123)",
    "OBJECT_ID": "2024-199AY",
    "EPOCH": "2025-05-24T20:46:36.077376",
    "MEAN_MOTION": 15.28148873,
    "ECCENTRICITY": 0.0014128,
    "INCLINATION": 97.3574,
    "RA_OF_ASC_NODE": 12.8116,
    "ARG_OF_PERICENTER": 251.4687,
    "MEAN_ANOMALY": 108.5018,
    "EPHEMERIS_TYPE": 0,
    "CLASSIFICATION_TYPE": "U",
    "NORAD_CAT_ID": 61781,
    "ELEMENT_SET_NO": 999,
    "REV_AT_EPOCH": 7448,
    "BSTAR": 0.00019757,
    "MEAN_MOTION_DOT": 5.361e-05,
    "MEAN_MOTION_DDOT": 0
  },
  {
    "OBJECT_NAME": "TUSUR GO (RS78S)",
    "OBJECT_ID": "2024-199AZ",
    "EPOCH": "2025-05-24T21:23:01.769280",
    "MEAN_MOTION": 15.35874109,
    "ECCENTRICITY": 0.0012386,
    "INCLINATION": 97.3557,
    "RA_OF_ASC_NODE": 13.8122,
    "ARG_OF_PERICENTER": 243.6029,
    "MEAN_ANOMALY": 116.3944,
    "EPHEMERIS_TYPE": 0,
    "CLASSIFICATION_TYPE": "U",
    "NORAD_CAT_ID": 61782,
    "ELEMENT_SET_NO": 999,
    "REV_AT_EPOCH": 7455,
    "BSTAR": 0.00055549,
    "MEAN_MOTION_DOT": 0.00019385,
    "MEAN_MOTION_DDOT": 0
  },
  {
    "OBJECT_NAME": "SAMSAT-IONOSPHERE (RS75S)",
    "OBJECT_ID": "2024-199BB",
    "EPOCH": "2025-05-24T21:48:27.493056",
    "MEAN_MOTION": 15.32915604,
    "ECCENTRICITY": 0.0013195,
    "INCLINATION": 97.3569,
    "RA_OF_ASC_NODE": 13.5009,
    "ARG_OF_PERICENTER": 246.8819,
    "MEAN_ANOMALY": 113.1033,
    "EPHEMERIS_TYPE": 0,
    "CLASSIFICATION_TYPE": "U",
    "NORAD_CAT_ID": 61784,
    "ELEMENT_SET_NO": 999,
    "REV_AT_EPOCH": 7768,
    "BSTAR": 0.0004302,
    "MEAN_MOTION_DOT": 0.00013644,
    "MEAN_MOTION_DDOT": 0
  },
  {
    "OBJECT_NAME": "RTU MIREA 1 (RS51S)",
    "OBJECT_ID": "2024-199BC",
    "EPOCH": "2025-05-24T21:14:28.988736",
    "MEAN_MOTION": 15.33331308,
    "ECCENTRICITY": 0.0012984,
    "INCLINATION": 97.3567,
    "RA_OF_ASC_NODE": 13.5303,
    "ARG_OF_PERICENTER": 245.8963,
    "MEAN_ANOMALY": 114.0922,
    "EPHEMERIS_TYPE": 0,
    "CLASSIFICATION_TYPE": "U",
    "NORAD_CAT_ID": 61785,
    "ELEMENT_SET_NO": 999,
    "REV_AT_EPOCH": 7453,
    "BSTAR": 0.00042881,
    "MEAN_MOTION_DOT": 0.00013778,
    "MEAN_MOTION_DDOT": 0
  }
]