OOV-CUBE (TUBSAT-30)    
1 60240U 24128F   25144.46635283  .00002299  00000+0  19496-3 0  9995
2 60240  61.9939 138.3285 0050473  50.6050 309.9493 15.00151230 47743
COLIBRI-S (RS67S)       
1 61746U 24199M   25144.86731081  .00009109  00000+0  29505-3 0  9991
2 61746  97.3597  13.6251 0010757 233.7770 126.2478 15.32189369 77688
HORS 3 (RS81S)          
1 61753U 24199U   25144.87241991  .00011990  00000+0  37301-3 0  9990
2 61753  97.3565  13.6942 0008917 240.2012 119.8345 15.33422025 77697
HORS 4 (RS82S)          
1 61754U 24199V   25144.81765435  .00012714  00000+0  38641-3 0  9992
2 61754  97.3562  13.7596 0009077 240.4750 119.5588 15.34148897 77699
HORIZON (RS59S)         
1 61757U 24199Y   25144.83764968  .00019645  00000+0  54113-3 0  9999
2 61757  97.3585  14.2559 0009525 226.2308 133.8149 15.37136070 77720
SIT-2086                
1 61764U 24199AF  25144.84603894  .00017704  00000+0  51509-3 0  9998
2 61764  97.3567  14.0343 0007451 235.6068 124.4471 15.35465528 74553
MORDOVIA-IOT (RS50S)    
1 61765U 24199AG  25144.86464620  .00025150  00000+0  61509-3 0  9998
2 61765  97.3565  14.8100 0008957 218.9591 141.1011 15.40746324 74613
RUZAEVKA 390 (RS44S)    
1 61766U 24199AH  25144.86518792  .00023460  00000+0  59765-3 0  9992
2 61766  97.3566  14.6538 0008991 219.6028 140.4561 15.39516267 74609
HYPERVIEW 1G (RS66S)    
1 61772U 24199AP  25144.90209569  .00016566  00000+0  49109-3 0  9993
2 61772  97.3562  13.7992 0012040 244.3994 115.6005 15.34843849 74558
ALTAIR (RS65S)          
1 61779U 24199AW  25144.83090574  .00006536  00000+0  23637-3 0  9990
2 61779  97.3586  12.8713 0013857 250.9787 108.9952 15.28686372 77639
ASRTU-1 (AO-123)        
1 61781U 24199AY  25144.86569534  .00005361  00000+0  19757-3 0  9996
2 61781  97.3574  12.8116 0014128 251.4687 108.5018 15.28148873 74481
TUSUR GO (RS78S)        
1 61782U 24199AZ  25144.89099270  .00019385  00000+0  55549-3 0  9995
2 61782  97.3557  13.8122 0012386 243.6029 116.3944 15.35874109 74557
SAMSAT-IONOSPHERE (RS7*)
1 61784U 24199BB  25144.90865154  .00013644  00000+0  43020-3 0  9994
2 61784  97.3569  13.5009 0013195 246.8819 113.1033 15.32915604 77688
RTU MIREA 1 (RS51S)     
1 61785U 24199BC  25144.88505774  .00013778  00000+0  42881-3 0  9993
2 61785  97.3567  13.5303 0012984 245.8963 114.0922 15.33331308 74530
